{"type": "FeatureCollection", "features": [ {"type": "Feature", "properties": {"norad_id": 66446, "name": "STARLINK-34986", "group": "last-30-days", "lat": -18.93626469771199, "lon": 54.606819506182724, "alt_km": 414.01782546552295, "timestamp": "2025-12-07T18:50:15.513339+00:00", "meta": {"OBJECT_NAME": "STARLINK-34986", "OBJECT_ID": "2025-259AA", "EPOCH": "2025-12-06T15:08:17.236320", "MEAN_MOTION": 15.50717396, "ECCENTRICITY": 0.00036136, "INCLINATION": 43.0015, "RA_OF_ASC_NODE": 82.9643, "ARG_OF_PERICENTER": 270.4402, "MEAN_ANOMALY": 89.6044, "EPHEMERIS_TYPE": 0, "CLASSIFICATION_TYPE": "U", "NORAD_CAT_ID": 66446, "ELEMENT_SET_NO": 999, "REV_AT_EPOCH": 522, "BSTAR": 0.0025811199, "MEAN_MOTION_DOT": 0.00154895, "MEAN_MOTION_DDOT": 0}, "tle": {"line1": "1 66446U 25259AA  25340.63075505  .00154895  00000+0  25811-2 0  9994", "line2": "2 66446  43.0015  82.9643 0003613 270.4402  89.6044 15.50717396  5229"}}, "geometry": {"type": "Point", "coordinates": [54.606819506182724, -18.93626469771199]}}, {"type": "Feature", "properties": {"norad_id": 66447, "name": "STARLINK-34851", "group": "last-30-days", "lat": -16.723632399728384, "lon": 57.393214274390694, "alt_km": 414.069143262569, "timestamp": "2025-12-07T18:50:15.513349+00:00", "meta": {"OBJECT_NAME": "STARLINK-34851", "OBJECT_ID": "2025-259AB", "EPOCH": "2025-12-06T16:40:03.313920", "MEAN_MOTION": 15.50690671, "ECCENTRICITY": 0.00040491, "INCLINATION": 43.0023, "RA_OF_ASC_NODE": 82.5838, "ARG_OF_PERICENTER": 272.8522, "MEAN_ANOMALY": 87.1875, "EPHEMERIS_TYPE": 0, "CLASSIFICATION_TYPE": "U", "NORAD_CAT_ID": 66447, "ELEMENT_SET_NO": 999, "REV_AT_EPOCH": 512, "BSTAR": 0.0019447268, "MEAN_MOTION_DOT": 0.00115934, "MEAN_MOTION_DDOT": 0}, "tle": {"line1": "1 66447U 25259AB  25340.69448280  .00115934  00000+0  19447-2 0  9994", "line2": "2 66447  43.0023  82.5838 0004049 272.8522  87.1875 15.50690671  5124"}}, "geometry": {"type": "Point", "coordinates": [57.393214274390694, -16.723632399728384]}}, {"type": "Feature", "properties": {"norad_id": 66448, "name": "STARLINK-35355", "group": "last-30-days", "lat": -15.692044014439826, "lon": 58.65025717236129, "alt_km": 415.06815605374777, "timestamp": "2025-12-07T18:50:15.513359+00:00", "meta": {"OBJECT_NAME": "STARLINK-35355", "OBJECT_ID": "2025-259AC", "EPOCH": "2025-12-06T16:39:34.538400", "MEAN_MOTION": 15.50601371, "ECCENTRICITY": 0.00010967, "INCLINATION": 43.0003, "RA_OF_ASC_NODE": 82.58, "ARG_OF_PERICENTER": 298.3309, "MEAN_ANOMALY": 61.744, "EPHEMERIS_TYPE": 0, "CLASSIFICATION_TYPE": "U", "NORAD_CAT_ID": 66448, "ELEMENT_SET_NO": 999, "REV_AT_EPOCH": 523, "BSTAR": 0.0022573217, "MEAN_MOTION_DOT": 0.0013449, "MEAN_MOTION_DDOT": 0}, "tle": {"line1": "1 66448U 25259AC  25340.69414975  .00134490  00000+0  22573-2 0  9991", "line2": "2 66448  43.0003  82.5800 0001096 298.3309  61.7440 15.50601371  5234"}}, "geometry": {"type": "Point", "coordinates": [58.65025717236129, -15.692044014439826]}}, {"type": "Feature", "properties": {"norad_id": 66449, "name": "STARLINK-34720", "group": "last-30-days", "lat": -14.377330945164367, "lon": 60.224112518418885, "alt_km": 414.8937575290056, "timestamp": "2025-12-07T18:50:15.513382+00:00", "meta": {"OBJECT_NAME": "STARLINK-34720", "OBJECT_ID": "2025-259AD", "EPOCH": "2025-12-06T16:39:04.732992", "MEAN_MOTION": 15.50613009, "ECCENTRICITY": 0.00015775, "INCLINATION": 43.0002, "RA_OF_ASC_NODE": 82.5763, "ARG_OF_PERICENTER": 274.1067, "MEAN_ANOMALY": 85.9613, "EPHEMERIS_TYPE": 0, "CLASSIFICATION_TYPE": "U", "NORAD_CAT_ID": 66449, "ELEMENT_SET_NO": 999, "REV_AT_EPOCH": 512, "BSTAR": 0.0024109474, "MEAN_MOTION_DOT": 0.00143901, "MEAN_MOTION_DDOT": 0}, "tle": {"line1": "1 66449U 25259AD  25340.69380478  .00143901  00000+0  24109-2 0  9996", "line2": "2 66449  43.0002  82.5763 0001577 274.1067  85.9613 15.50613009  5128"}}, "geometry": {"type": "Point", "coordinates": [60.224112518418885, -14.377330945164367]}}, {"type": "Feature", "properties": {"norad_id": 66450, "name": "STARLINK-35334", "group": "last-30-days", "lat": -13.019838162289538, "lon": 61.817368137075604, "alt_km": 414.85660280041157, "timestamp": "2025-12-07T18:50:15.513393+00:00", "meta": {"OBJECT_NAME": "STARLINK-35334", "OBJECT_ID": "2025-259AE", "EPOCH": "2025-12-06T15:05:49.303968", "MEAN_MOTION": 15.50640512, "ECCENTRICITY": 0.00016631, "INCLINATION": 43.001, "RA_OF_ASC_NODE": 82.9491, "ARG_OF_PERICENTER": 265.9718, "MEAN_ANOMALY": 94.0952, "EPHEMERIS_TYPE": 0, "CLASSIFICATION_TYPE": "U", "NORAD_CAT_ID": 66450, "ELEMENT_SET_NO": 999, "REV_AT_EPOCH": 522, "BSTAR": 0.0021499199, "MEAN_MOTION_DOT": 0.0012815, "MEAN_MOTION_DDOT": 0}, "tle": {"line1": "1 66450U 25259AE  25340.62904287  .00128150  00000+0  21499-2 0  9999", "line2": "2 66450  43.0010  82.9491 0001663 265.9718  94.0952 15.50640512  5225"}}, "geometry": {"type": "Point", "coordinates": [61.817368137075604, -13.019838162289538]}}, {"type": "Feature", "properties": {"norad_id": 66454, "name": "VIASAT-3 F2", "group": "last-30-days", "lat": -5.020081433810681, "lon": 176.93924146235503, "alt_km": 14217.940755668758, "timestamp": "2025-12-07T18:50:15.513406+00:00", "meta": {"OBJECT_NAME": "VIASAT-3 F2", "OBJECT_ID": "2025-261A", "EPOCH": "2025-12-04T21:51:56.064384", "MEAN_MOTION": 2.28030055, "ECCENTRICITY": 0.23396731, "INCLINATION": 5.5696, "RA_OF_ASC_NODE": 293.0418, "ARG_OF_PERICENTER": 184.3884, "MEAN_ANOMALY": 199.1368, "EPHEMERIS_TYPE": 0, "CLASSIFICATION_TYPE": "U", "NORAD_CAT_ID": 66454, "ELEMENT_SET_NO": 999, "REV_AT_EPOCH": 47, "BSTAR": 0, "MEAN_MOTION_DOT": -6.1e-07, "MEAN_MOTION_DDOT": 0}, "tle": {"line1": "1 66454U 25261A   25338.91106556 -.00000061  00000+0  00000+0 0  9991", "line2": "2 66454   5.5696 293.0418 2339673 184.3884 199.1368  2.28030055   477"}}, "geometry": {"type": "Point", "coordinates": [176.93924146235503, -5.020081433810681]}}, {"type": "Feature", "properties": {"norad_id": 66455, "name": "ATLAS 5 CENTAUR R/B", "group": "last-30-days", "lat": -5.1973393383852695, "lon": 169.56413129501445, "alt_km": 13786.696725730144, "timestamp": "2025-12-07T18:50:15.513420+00:00", "meta": {"OBJECT_NAME": "ATLAS 5 CENTAUR R/B", "OBJECT_ID": "2025-261B", "EPOCH": "2025-12-07T02:35:10.279104", "MEAN_MOTION": 2.28259391, "ECCENTRICITY": 0.23295535, "INCLINATION": 6.153, "RA_OF_ASC_NODE": 292.1796, "ARG_OF_PERICENTER": 185.3522, "MEAN_ANOMALY": 196.7478, "EPHEMERIS_TYPE": 0, "CLASSIFICATION_TYPE": "U", "NORAD_CAT_ID": 66455, "ELEMENT_SET_NO": 999, "REV_AT_EPOCH": 52, "BSTAR": 0, "MEAN_MOTION_DOT": -7.4e-07, "MEAN_MOTION_DDOT": 0}, "tle": {"line1": "1 66455U 25261B   25341.10775786 -.00000074  00000+0  00000+0 0  9998", "line2": "2 66455   6.1530 292.1796 2329553 185.3522 196.7478  2.28259391   524"}}, "geometry": {"type": "Point", "coordinates": [169.56413129501445, -5.1973393383852695]}}, {"type": "Feature", "properties": {"norad_id": 66456, "name": "STARLINK-35643", "group": "last-30-days", "lat": -3.8552898435022045, "lon": 96.01523256431668, "alt_km": 437.0979546005774, "timestamp": "2025-12-07T18:50:15.513432+00:00", "meta": {"OBJECT_NAME": "STARLINK-35643", "OBJECT_ID": "2025-262A", "EPOCH": "2025-12-07T06:00:04.999968", "MEAN_MOTION": 15.45377884, "ECCENTRICITY": 0.00013484, "INCLINATION": 43.0012, "RA_OF_ASC_NODE": 103.2611, "ARG_OF_PERICENTER": 269.404, "MEAN_ANOMALY": 348.2143, "EPHEMERIS_TYPE": 0, "CLASSIFICATION_TYPE": "U", "NORAD_CAT_ID": 66456, "ELEMENT_SET_NO": 999, "REV_AT_EPOCH": 475, "BSTAR": -0.046662534, "MEAN_MOTION_DOT": -0.0203169, "MEAN_MOTION_DDOT": 0}, "tle": {"line1": "1 66456U 25262A   25341.25005787 -.02031690  00000+0 -46663-1 0  9991", "line2": "2 66456  43.0012 103.2611 0001348 269.4040 348.2143 15.45377884  4757"}}, "geometry": {"type": "Point", "coordinates": [96.01523256431668, -3.8552898435022045]}}, {"type": "Feature", "properties": {"norad_id": 66457, "name": "STARLINK-35466", "group": "last-30-days", "lat": 7.8190220731167335, "lon": 108.59359900764673, "alt_km": 427.93620918658235, "timestamp": "2025-12-07T18:50:15.513442+00:00", "meta": {"OBJECT_NAME": "STARLINK-35466", "OBJECT_ID": "2025-262B", "EPOCH": "2025-12-07T06:00:04.999968", "MEAN_MOTION": 15.47991868, "ECCENTRICITY": 0.00010581, "INCLINATION": 43.0008, "RA_OF_ASC_NODE": 103.2309, "ARG_OF_PERICENTER": 276.5943, "MEAN_ANOMALY": 353.1305, "EPHEMERIS_TYPE": 0, "CLASSIFICATION_TYPE": "U", "NORAD_CAT_ID": 66457, "ELEMENT_SET_NO": 999, "REV_AT_EPOCH": 475, "BSTAR": -0.042321877, "MEAN_MOTION_DOT": -0.02020153, "MEAN_MOTION_DDOT": 0}, "tle": {"line1": "1 66457U 25262B   25341.25005787 -.02020153  00000+0 -42322-1 0  9992", "line2": "2 66457  43.0008 103.2309 0001058 276.5943 353.1305 15.47991868  4757"}}, "geometry": {"type": "Point", "coordinates": [108.59359900764673, 7.8190220731167335]}}, {"type": "Feature", "properties": {"norad_id": 66458, "name": "STARLINK-35684", "group": "last-30-days", "lat": 2.4890018670850673, "lon": 102.81246081031276, "alt_km": 432.6418482767449, "timestamp": "2025-12-07T18:50:15.513453+00:00", "meta": {"OBJECT_NAME": "STARLINK-35684", "OBJECT_ID": "2025-262C", "EPOCH": "2025-12-07T06:00:04.999968", "MEAN_MOTION": 15.46703002, "ECCENTRICITY": 0.00010152, "INCLINATION": 43.001, "RA_OF_ASC_NODE": 103.2441, "ARG_OF_PERICENTER": 260.7362, "MEAN_ANOMALY": 3.6108, "EPHEMERIS_TYPE": 0, "CLASSIFICATION_TYPE": "U", "NORAD_CAT_ID": 66458, "ELEMENT_SET_NO": 999, "REV_AT_EPOCH": 475, "BSTAR": -0.044035668, "MEAN_MOTION_DOT": -0.02010157, "MEAN_MOTION_DDOT": 0}, "tle": {"line1": "1 66458U 25262C   25341.25005787 -.02010157  00000+0 -44036-1 0  9990", "line2": "2 66458  43.0010 103.2441 0001015 260.7362   3.6108 15.46703002  4759"}}, "geometry": {"type": "Point", "coordinates": [102.81246081031276, 2.4890018670850673]}}]}